<?xml version="1.0" encoding="UTF-8"?>
<ndm xmlns:xsi="http://www.w3.org/2001/XMLSchema-instance" xsi:noNamespaceSchemaLocation="https://sanaregistry.org/r/ndmxml_unqualified/ndmxml-2.0.0-master-2.0.xsd">
<omm id="CCSDS_OMM_VERS" version="2.0">
<header><CREATION_DATE/><ORIGINATOR/></header><body><segment><metadata><OBJECT_NAME>ORBCOMM FM05</OBJECT_NAME><OBJECT_ID>1997-084F</OBJECT_ID><CENTER_NAME>EARTH</CENTER_NAME><REF_FRAME>TEME</REF_FRAME><TIME_SYSTEM>UTC</TIME_SYSTEM><MEAN_ELEMENT_THEORY>SGP4</MEAN_ELEMENT_THEORY></metadata><data><meanElements><EPOCH>2024-05-17T14:25:57.272448</EPOCH><MEAN_MOTION>14.42759026</MEAN_MOTION><ECCENTRICITY>.0003195</ECCENTRICITY><INCLINATION>45.0142</INCLINATION><RA_OF_ASC_NODE>102.7984</RA_OF_ASC_NODE><ARG_OF_PERICENTER>6.7488</ARG_OF_PERICENTER><MEAN_ANOMALY>353.3405</MEAN_ANOMALY></meanElements><tleParameters><EPHEMERIS_TYPE>0</EPHEMERIS_TYPE><CLASSIFICATION_TYPE>U</CLASSIFICATION_TYPE><NORAD_CAT_ID>25117</NORAD_CAT_ID><ELEMENT_SET_NO>999</ELEMENT_SET_NO><REV_AT_EPOCH>38435</REV_AT_EPOCH><BSTAR>.14703E-2</BSTAR><MEAN_MOTION_DOT>.4805E-4</MEAN_MOTION_DOT><MEAN_MOTION_DDOT>0</MEAN_MOTION_DDOT></tleParameters></data></segment></body></omm>
<omm id="CCSDS_OMM_VERS" version="2.0">
<header><CREATION_DATE/><ORIGINATOR/></header><body><segment><metadata><OBJECT_NAME>ORBCOMM FM06</OBJECT_NAME><OBJECT_ID>1997-084G</OBJECT_ID><CENTER_NAME>EARTH</CENTER_NAME><REF_FRAME>TEME</REF_FRAME><TIME_SYSTEM>UTC</TIME_SYSTEM><MEAN_ELEMENT_THEORY>SGP4</MEAN_ELEMENT_THEORY></metadata><data><meanElements><EPOCH>2024-05-17T21:53:03.508224</EPOCH><MEAN_MOTION>14.42812322</MEAN_MOTION><ECCENTRICITY>.0002298</ECCENTRICITY><INCLINATION>45.0133</INCLINATION><RA_OF_ASC_NODE>101.4792</RA_OF_ASC_NODE><ARG_OF_PERICENTER>7.0335</ARG_OF_PERICENTER><MEAN_ANOMALY>22.3429</MEAN_ANOMALY></meanElements><tleParameters><EPHEMERIS_TYPE>0</EPHEMERIS_TYPE><CLASSIFICATION_TYPE>U</CLASSIFICATION_TYPE><NORAD_CAT_ID>25118</NORAD_CAT_ID><ELEMENT_SET_NO>999</ELEMENT_SET_NO><REV_AT_EPOCH>38439</REV_AT_EPOCH><BSTAR>.17246E-2</BSTAR><MEAN_MOTION_DOT>.5668E-4</MEAN_MOTION_DOT><MEAN_MOTION_DDOT>0</MEAN_MOTION_DDOT></tleParameters></data></segment></body></omm>
<omm id="CCSDS_OMM_VERS" version="2.0">
<header><CREATION_DATE/><ORIGINATOR/></header><body><segment><metadata><OBJECT_NAME>ORBCOMM FM07</OBJECT_NAME><OBJECT_ID>1997-084H</OBJECT_ID><CENTER_NAME>EARTH</CENTER_NAME><REF_FRAME>TEME</REF_FRAME><TIME_SYSTEM>UTC</TIME_SYSTEM><MEAN_ELEMENT_THEORY>SGP4</MEAN_ELEMENT_THEORY></metadata><data><meanElements><EPOCH>2024-05-17T14:54:05.303808</EPOCH><MEAN_MOTION>14.42726645</MEAN_MOTION><ECCENTRICITY>.0004048</ECCENTRICITY><INCLINATION>45.0129</INCLINATION><RA_OF_ASC_NODE>103.4096</RA_OF_ASC_NODE><ARG_OF_PERICENTER>3.0635</ARG_OF_PERICENTER><MEAN_ANOMALY>357.0239</MEAN_ANOMALY></meanElements><tleParameters><EPHEMERIS_TYPE>0</EPHEMERIS_TYPE><CLASSIFICATION_TYPE>U</CLASSIFICATION_TYPE><NORAD_CAT_ID>25119</NORAD_CAT_ID><ELEMENT_SET_NO>999</ELEMENT_SET_NO><REV_AT_EPOCH>38434</REV_AT_EPOCH><BSTAR>.14021E-2</BSTAR><MEAN_MOTION_DOT>.4572E-4</MEAN_MOTION_DOT><MEAN_MOTION_DDOT>0</MEAN_MOTION_DDOT></tleParameters></data></segment></body></omm>
<omm id="CCSDS_OMM_VERS" version="2.0">
<header><CREATION_DATE/><ORIGINATOR/></header><body><segment><metadata><OBJECT_NAME>ORBCOMM FM03</OBJECT_NAME><OBJECT_ID>1998-007B</OBJECT_ID><CENTER_NAME>EARTH</CENTER_NAME><REF_FRAME>TEME</REF_FRAME><TIME_SYSTEM>UTC</TIME_SYSTEM><MEAN_ELEMENT_THEORY>SGP4</MEAN_ELEMENT_THEORY></metadata><data><meanElements><EPOCH>2024-05-17T12:06:01.346400</EPOCH><MEAN_MOTION>14.32205286</MEAN_MOTION><ECCENTRICITY>.0047705</ECCENTRICITY><INCLINATION>107.9711</INCLINATION><RA_OF_ASC_NODE>44.0539</RA_OF_ASC_NODE><ARG_OF_PERICENTER>221.4087</ARG_OF_PERICENTER><MEAN_ANOMALY>138.3431</MEAN_ANOMALY></meanElements><tleParameters><EPHEMERIS_TYPE>0</EPHEMERIS_TYPE><CLASSIFICATION_TYPE>U</CLASSIFICATION_TYPE><NORAD_CAT_ID>25158</NORAD_CAT_ID><ELEMENT_SET_NO>999</ELEMENT_SET_NO><REV_AT_EPOCH>36734</REV_AT_EPOCH><BSTAR>.10132E-2</BSTAR><MEAN_MOTION_DOT>.2639E-4</MEAN_MOTION_DOT><MEAN_MOTION_DDOT>0</MEAN_MOTION_DDOT></tleParameters></data></segment></body></omm>
<omm id="CCSDS_OMM_VERS" version="2.0">
<header><CREATION_DATE/><ORIGINATOR/></header><body><segment><metadata><OBJECT_NAME>ORBCOMM FM04</OBJECT_NAME><OBJECT_ID>1998-007C</OBJECT_ID><CENTER_NAME>EARTH</CENTER_NAME><REF_FRAME>TEME</REF_FRAME><TIME_SYSTEM>UTC</TIME_SYSTEM><MEAN_ELEMENT_THEORY>SGP4</MEAN_ELEMENT_THEORY></metadata><data><meanElements><EPOCH>2024-05-17T16:49:29.346240</EPOCH><MEAN_MOTION>14.32472478</MEAN_MOTION><ECCENTRICITY>.0043175</ECCENTRICITY><INCLINATION>107.9694</INCLINATION><RA_OF_ASC_NODE>47.3977</RA_OF_ASC_NODE><ARG_OF_PERICENTER>218.9526</ARG_OF_PERICENTER><MEAN_ANOMALY>140.8499</MEAN_ANOMALY></meanElements><tleParameters><EPHEMERIS_TYPE>0</EPHEMERIS_TYPE><CLASSIFICATION_TYPE>U</CLASSIFICATION_TYPE><NORAD_CAT_ID>25159</NORAD_CAT_ID><ELEMENT_SET_NO>999</ELEMENT_SET_NO><REV_AT_EPOCH>36765</REV_AT_EPOCH><BSTAR>.11107E-2</BSTAR><MEAN_MOTION_DOT>.2915E-4</MEAN_MOTION_DOT><MEAN_MOTION_DDOT>0</MEAN_MOTION_DDOT></tleParameters></data></segment></body></omm>
<omm id="CCSDS_OMM_VERS" version="2.0">
<header><CREATION_DATE/><ORIGINATOR/></header><body><segment><metadata><OBJECT_NAME>ORBCOMM FM17</OBJECT_NAME><OBJECT_ID>1998-046A</OBJECT_ID><CENTER_NAME>EARTH</CENTER_NAME><REF_FRAME>TEME</REF_FRAME><TIME_SYSTEM>UTC</TIME_SYSTEM><MEAN_ELEMENT_THEORY>SGP4</MEAN_ELEMENT_THEORY></metadata><data><meanElements><EPOCH>2024-05-17T21:08:47.586912</EPOCH><MEAN_MOTION>14.33189836</MEAN_MOTION><ECCENTRICITY>.0001676</ECCENTRICITY><INCLINATION>44.9948</INCLINATION><RA_OF_ASC_NODE>320.5271</RA_OF_ASC_NODE><ARG_OF_PERICENTER>43.6257</ARG_OF_PERICENTER><MEAN_ANOMALY>316.4722</MEAN_ANOMALY></meanElements><tleParameters><EPHEMERIS_TYPE>0</EPHEMERIS_TYPE><CLASSIFICATION_TYPE>U</CLASSIFICATION_TYPE><NORAD_CAT_ID>25413</NORAD_CAT_ID><ELEMENT_SET_NO>999</ELEMENT_SET_NO><REV_AT_EPOCH>34659</REV_AT_EPOCH><BSTAR>.10633E-2</BSTAR><MEAN_MOTION_DOT>.2808E-4</MEAN_MOTION_DOT><MEAN_MOTION_DDOT>0</MEAN_MOTION_DDOT></tleParameters></data></segment></body></omm>
<omm id="CCSDS_OMM_VERS" version="2.0">
<header><CREATION_DATE/><ORIGINATOR/></header><body><segment><metadata><OBJECT_NAME>ORBCOMM FM18</OBJECT_NAME><OBJECT_ID>1998-046B</OBJECT_ID><CENTER_NAME>EARTH</CENTER_NAME><REF_FRAME>TEME</REF_FRAME><TIME_SYSTEM>UTC</TIME_SYSTEM><MEAN_ELEMENT_THEORY>SGP4</MEAN_ELEMENT_THEORY></metadata><data><meanElements><EPOCH>2024-05-17T13:59:30.180480</EPOCH><MEAN_MOTION>14.35962526</MEAN_MOTION><ECCENTRICITY>.0002803</ECCENTRICITY><INCLINATION>44.9925</INCLINATION><RA_OF_ASC_NODE>248.8724</RA_OF_ASC_NODE><ARG_OF_PERICENTER>112.6994</ARG_OF_PERICENTER><MEAN_ANOMALY>247.4150</MEAN_ANOMALY></meanElements><tleParameters><EPHEMERIS_TYPE>0</EPHEMERIS_TYPE><CLASSIFICATION_TYPE>U</CLASSIFICATION_TYPE><NORAD_CAT_ID>25414</NORAD_CAT_ID><ELEMENT_SET_NO>999</ELEMENT_SET_NO><REV_AT_EPOCH>34733</REV_AT_EPOCH><BSTAR>.12892E-2</BSTAR><MEAN_MOTION_DOT>.3637E-4</MEAN_MOTION_DOT><MEAN_MOTION_DDOT>0</MEAN_MOTION_DDOT></tleParameters></data></segment></body></omm>
<omm id="CCSDS_OMM_VERS" version="2.0">
<header><CREATION_DATE/><ORIGINATOR/></header><body><segment><metadata><OBJECT_NAME>ORBCOMM FM19</OBJECT_NAME><OBJECT_ID>1998-046C</OBJECT_ID><CENTER_NAME>EARTH</CENTER_NAME><REF_FRAME>TEME</REF_FRAME><TIME_SYSTEM>UTC</TIME_SYSTEM><MEAN_ELEMENT_THEORY>SGP4</MEAN_ELEMENT_THEORY></metadata><data><meanElements><EPOCH>2024-05-17T14:56:08.002176</EPOCH><MEAN_MOTION>14.35799215</MEAN_MOTION><ECCENTRICITY>.0001549</ECCENTRICITY><INCLINATION>44.9934</INCLINATION><RA_OF_ASC_NODE>250.1082</RA_OF_ASC_NODE><ARG_OF_PERICENTER>114.0037</ARG_OF_PERICENTER><MEAN_ANOMALY>260.5228</MEAN_ANOMALY></meanElements><tleParameters><EPHEMERIS_TYPE>0</EPHEMERIS_TYPE><CLASSIFICATION_TYPE>U</CLASSIFICATION_TYPE><NORAD_CAT_ID>25415</NORAD_CAT_ID><ELEMENT_SET_NO>999</ELEMENT_SET_NO><REV_AT_EPOCH>34730</REV_AT_EPOCH><BSTAR>.13282E-2</BSTAR><MEAN_MOTION_DOT>.3739E-4</MEAN_MOTION_DOT><MEAN_MOTION_DDOT>0</MEAN_MOTION_DDOT></tleParameters></data></segment></body></omm>

</ndm>
